% program   : RTKLIB ver.2.4.3
% inp file  : /Users/sergeidolin/Downloads/MI8X253C.24o
% inp file  : /Users/sergeidolin/Downloads/BRDC00IGS_R_20242530000_01D_MN.rnx
% inp file  : /Users/sergeidolin/Downloads/IGS0OPSFIN_20242530000_01D_15M_ORB.SP3
% inp file  : /Users/sergeidolin/Downloads/IGS0OPSFIN_20242530000_01D_30S_CLK.CLK
% obs start : 2024/09/09 02:00:01.0 GPST (week2331  93601.0s)
% obs end   : 2024/09/09 02:14:10.0 GPST (week2331  94450.0s)
% pos mode  : PPP Kinematic
% solution  : Forward
% elev mask : 0.0 deg
% dynamics  : off
% tidecorr  : off
% tropo opt : Estimate ZTD
% ephemeris : Precise
% navi sys  : GPS QZSS
% antenna1  :                       ( 0.0000  0.0000  0.0000)
%
% (lat/lon/height=WGS84/ellipsoidal,Q=1:fix,2:float,3:sbas,4:dgps,5:single,6:ppp,ns=# of satellites)
%  GPST                  latitude(deg) longitude(deg)  height(m)   Q  ns   sdn(m)   sde(m)   sdu(m)  sdne(m)  sdeu(m)  sdun(m) age(s)  ratio
