% program   : RTKLIB ver.2.4.3
% inp file  : /Users/sergeidolin/Downloads/MI8X299I.22o
% inp file  : /Users/sergeidolin/Downloads/BRDC00IGS_R_20222990000_01D_MN.rnx
% inp file  : /Users/sergeidolin/Downloads/igs22333.sp3
% inp file  : /Users/sergeidolin/Downloads/igs22333.clk
% obs start : 2022/10/26 08:23:52.5 GPST (week2233 289432.5s)
% obs end   : 2022/10/26 08:39:01.0 GPST (week2233 290341.0s)
% pos mode  : PPP Kinematic
% solution  : Forward
% elev mask : 0.0 deg
% dynamics  : off
% tidecorr  : off
% tropo opt : Estimate ZTD
% ephemeris : Precise
% navi sys  : GPS
% antenna1  :                       ( 0.0000  0.0000  0.0000)
%
% (lat/lon/height=WGS84/ellipsoidal,Q=1:fix,2:float,3:sbas,4:dgps,5:single,6:ppp,ns=# of satellites)
%  GPST                  latitude(deg) longitude(deg)  height(m)   Q  ns   sdn(m)   sde(m)   sdu(m)  sdne(m)  sdeu(m)  sdun(m) age(s)  ratio
