% program   : RTKLIB ver.2.4.3
% inp file  : /Users/sergeidolin/Downloads/MI8X259F-2.23o
% inp file  : /Users/sergeidolin/Downloads/BRDC00IGS_R_20232590000_01D_MN.rnx
% inp file  : /Users/sergeidolin/Downloads/IGS0OPSFIN_20232590000_01D_15M_ORB.SP3
% inp file  : /Users/sergeidolin/Downloads/IGS0OPSFIN_20232590000_01D_30S_CLK.CLK
% obs start : 2023/09/16 05:28:20.0 GPST (week2279 538100.0s)
% obs end   : 2023/09/16 05:48:52.0 GPST (week2279 539332.0s)
% pos mode  : PPP Kinematic
% solution  : Forward
% elev mask : 0.0 deg
% dynamics  : off
% tidecorr  : on
% tropo opt : Estimate ZTD+Grad
% ephemeris : Precise
% navi sys  : GPS Galileo QZSS
% antenna1  :                       ( 0.0000  0.0000  0.0000)
%
% (lat/lon/height=WGS84/ellipsoidal,Q=1:fix,2:float,3:sbas,4:dgps,5:single,6:ppp,ns=# of satellites)
%  GPST                  latitude(deg) longitude(deg)  height(m)   Q  ns   sdn(m)   sde(m)   sdu(m)  sdne(m)  sdeu(m)  sdun(m) age(s)  ratio
2023/09/16 05:34:04.000   54.987660824   82.869749424    90.1791   6   4   3.2856   1.5841   3.7196   1.7321   1.4165   2.6759   0.00    0.0
2023/09/16 05:34:22.000   54.987592872   82.870039142    86.8790   6   4   3.2791   1.4562   3.7243   1.5292   0.8839   2.1234   0.00    0.0
2023/09/16 05:35:13.000   54.987427307   82.870633603   111.1181   6   4   6.0345   1.0253   8.8450   1.1685  -1.2664  -6.8703   0.00    0.0
2023/09/16 05:35:14.000   54.987363980   82.870447067   115.5496   6   4   2.5692   6.7356   4.5908   2.9556  -4.3765  -2.7737   0.00    0.0
2023/09/16 05:36:25.000   54.986823067   82.870871573    85.3730   6   4   2.6210   6.7843   4.6955   2.8968  -4.7151  -2.7449   0.00    0.0
2023/09/16 05:36:39.000   54.986679025   82.870748929    75.7280   6   4   3.7790   0.8728   5.6052   0.9815  -1.1411  -4.2618   0.00    0.0
2023/09/16 05:42:29.000   54.985716054   82.864960497    82.0637   6   4   2.8386   1.3466   4.3955   1.1310  -0.8315   2.0475   0.00    0.0
2023/09/16 05:42:38.000   54.985661821   82.864942109   108.0076   6   4   3.1454   1.4420   4.5461   1.4049  -0.3000   2.4027   0.00    0.0
2023/09/16 05:42:46.000   54.985671747   82.864842287   125.7976   6   4   2.2851   1.3278  11.5201   0.5280  -2.7683   1.9264   0.00    0.0
