% program   : RTKLIB ver.2.4.3
% inp file  : /Users/sergeidolin/RTKLIB/app/consapp/rnx2rtkp/gcc/ABMF00GLP_R_20250350000_01D_30S_MO.rnx
% inp file  : /Users/sergeidolin/RTKLIB/app/consapp/rnx2rtkp/gcc/BRDC00IGS_R_20250350000_01D_MN.rnx
% inp file  : /Users/sergeidolin/RTKLIB/app/consapp/rnx2rtkp/gcc/IGS0OPSFIN_20250350000_01D_15M_ORB.SP3
% inp file  : /Users/sergeidolin/RTKLIB/app/consapp/rnx2rtkp/gcc/IGS0OPSFIN_20250350000_01D_30S_CLK.CLK
% obs start : 2025/02/04 00:00:00.0 GPST (week2352 172800.0s)
% obs end   : 2025/02/04 23:59:30.0 GPST (week2352 259170.0s)
% pos mode  : PPP Static
% solution  : Forward
% elev mask : 0.0 deg
% dynamics  : off
% tidecorr  : off
% tropo opt : Estimate ZTD
% ephemeris : Precise
% navi sys  : GPS Galileo
% antenna1  : TRM57971.00     NONE  ( 0.0000  0.0000  0.0000)
%
% (lat/lon/height=WGS84/ellipsoidal,Q=1:fix,2:float,3:sbas,4:dgps,5:single,6:ppp,ns=# of satellites)
%  GPST                  latitude(deg) longitude(deg)  height(m)   Q  ns   sdn(m)   sde(m)   sdu(m)  sdne(m)  sdeu(m)  sdun(m) age(s)  ratio
2025/02/04 00:00:00.000   16.262307285  -61.527535165   -25.4575   6   6   0.0030   0.0102   0.0077  -0.0007   0.0016   0.0001   0.00    0.0
